0 SL-14 DEB
1 19175U 78100S   13283.20767716  .00005716  00000-0  25052-1 0  2056
2 19175 082.4259 206.5853 0133856 173.6353 310.6024 12.77375590159476
0 SL-14 DEB
1 19175U 78100S   13283.80726206  .00004322  00000-0  10000-3 0  2063
2 19175 082.4256 206.1797 0138018 178.0631 182.1523 12.77384790156126
0 SL-14 DEB
1 19175U 78100S   13285.25340733  .00001523  00000-0  66408-2 0  2085
2 19175 082.4266 205.2152 0135601 165.4567 001.2584 12.77330776159738
0 SL-14 DEB
1 19175U 78100S   13286.09276918  .00001067  00000-0  46375-2 0  2096
2 19175 082.4269 204.6534 0136065 163.0609 261.3823 12.77313311159847
0 SL-14 DEB
1 19175U 78100S   13287.20960078  .00002453  00000-0  10722-1 0  2105
2 19175 082.4271 203.9061 0135670 160.9131 356.5026 12.77318455159985
0 SL-14 DEB
1 19175U 78100S   13287.81414574  .00003111  00000-0  13608-1 0  2116
2 19175 082.4270 203.5013 0135724 159.6387 256.3207 12.77343738160066
0 SL-14 DEB
1 19175U 78100S   13288.53297608  .00003801  00000-0  16633-1 0  2121
2 19175 082.4273 203.0201 0134762 158.8141 321.0360 12.77384991160159
0 SL-14 DEB
1 19175U 78100S   13288.83510273  .00003987  00000-0  17447-1 0  2130
2 19175 082.4281 202.8175 0134538 158.3946 270.1294 12.77404559160191
0 SL-14 DEB
1 19175U 78100S   13289.24573608  .00010692  00000-0  46830-1 0  2147
2 19175 082.4275 202.5429 0134343 157.5646 358.4061 12.77432077160249
0 SL-14 DEB
1 19175U 78100S   13290.18887042  .00033661  00000-0  14697+0 0  2158
2 19175 082.4280 201.9112 0134529 155.3439 015.9440 12.77536393160364
0 SL-14 DEB
1 19175U 78100S   13291.20588405  .00037737  00000-0  16436+0 0  2165
2 19175 082.4258 201.2295 0137284 151.3439 015.0202 12.77574991160498
0 SL-14 DEB
1 19175U 78100S   13291.27489461  .00034552  00000-0  15053+0 0  2171
2 19175 082.4279 201.1822 0137535 150.8202 332.7746 12.77565659160502
0 SL-14 DEB
1 19175U 78100S   13292.21387045  .00017539  00000-0  76470-1 0  2180
2 19175 082.4291 200.5546 0138589 147.8558 332.1165 12.77565685160623
0 SL-14 DEB
1 19175U 78100S   13292.82851147  .00007171  00000-0  31256-1 0  2191
2 19175 082.4287 200.1437 0139057 146.1262 279.3135 12.77578151160708
0 SL-14 DEB
1 19175U 78100S   13294.17892631  .00005576  00000-0  24275-1 0  2206
2 19175 082.4287 199.2391 0140395 142.0522 011.2327 12.77588899160870
0 SL-14 DEB
1 19175U 78100S   13295.19681339  .00007649  00000-0  33279-1 0  2218
2 19175 082.4288 198.5577 0141372 139.1409 013.4172 12.77609303161008
0 SL-14 DEB
1 19175U 78100S   13296.21532472  .00007910  00000-0  34387-1 0  2228
2 19175 082.4291 197.8754 0142371 136.2453 018.5078 12.77628735161133
